{"type": "FeatureCollection", "features": [ {"type": "Feature", "properties": {"norad_id": 30649, "name": "FENGYUN 1C DEB", "group": "fengyun-1c-debris", "lat": -23.644713929072765, "lon": 95.72342906004057, "alt_km": 834.2978970203794, "timestamp": "2025-12-22T09:53:37.679216+00:00", "meta": {"OBJECT_NAME": "FENGYUN 1C DEB", "OBJECT_ID": "1999-025APG", "EPOCH": "2025-12-21T05:42:23.707296", "MEAN_MOTION": 14.29598236, "ECCENTRICITY": 0.0051124, "INCLINATION": 98.8096, "RA_OF_ASC_NODE": 90.6428, "ARG_OF_PERICENTER": 147.2952, "MEAN_ANOMALY": 267.9486, "EPHEMERIS_TYPE": 0, "CLASSIFICATION_TYPE": "U", "NORAD_CAT_ID": 30649, "ELEMENT_SET_NO": 999, "REV_AT_EPOCH": 97185, "BSTAR": 0.0012776, "MEAN_MOTION_DOT": 3.273e-05, "MEAN_MOTION_DDOT": 0}, "tle": {"line1": "1 30649U 99025APG 25355.23777439  .00003273  00000+0  12776-2 0  9998", "line2": "2 30649  98.8096  90.6428 0051124 147.2952 267.9486 14.29598236971857"}}, "geometry": {"type": "Point", "coordinates": [95.72342906004057, -23.644713929072765]}}, {"type": "Feature", "properties": {"norad_id": 30650, "name": "FENGYUN 1C DEB", "group": "fengyun-1c-debris", "lat": 27.97688629322657, "lon": -137.77379163830986, "alt_km": 793.2612910562657, "timestamp": "2025-12-22T09:53:37.679226+00:00", "meta": {"OBJECT_NAME": "FENGYUN 1C DEB", "OBJECT_ID": "1999-025APH", "EPOCH": "2025-12-20T01:16:42.233376", "MEAN_MOTION": 14.13973355, "ECCENTRICITY": 0.00722893, "INCLINATION": 99.2039, "RA_OF_ASC_NODE": 34.8574, "ARG_OF_PERICENTER": 169.4969, "MEAN_ANOMALY": 220.8741, "EPHEMERIS_TYPE": 0, "CLASSIFICATION_TYPE": "U", "NORAD_CAT_ID": 30650, "ELEMENT_SET_NO": 999, "REV_AT_EPOCH": 96402, "BSTAR": 0.001156053, "MEAN_MOTION_DOT": 2.204e-05, "MEAN_MOTION_DDOT": 0}, "tle": {"line1": "1 30650U 99025APH 25354.05326659  .00002204  00000+0  11561-2 0  9997", "line2": "2 30650  99.2039  34.8574 0072289 169.4969 220.8741 14.13973355964027"}}, "geometry": {"type": "Point", "coordinates": [-137.77379163830986, 27.97688629322657]}}, {"type": "Feature", "properties": {"norad_id": 30652, "name": "FENGYUN 1C DEB", "group": "fengyun-1c-debris", "lat": -0.2702595335791401, "lon": 29.323645220520834, "alt_km": 872.9565802482985, "timestamp": "2025-12-22T09:53:37.679239+00:00", "meta": {"OBJECT_NAME": "FENGYUN 1C DEB", "OBJECT_ID": "1999-025APJ", "EPOCH": "2025-12-22T01:30:09.066816", "MEAN_MOTION": 14.07808183, "ECCENTRICITY": 0.0007516, "INCLINATION": 98.7839, "RA_OF_ASC_NODE": 28.9418, "ARG_OF_PERICENTER": 235.5314, "MEAN_ANOMALY": 153.2295, "EPHEMERIS_TYPE": 0, "CLASSIFICATION_TYPE": "U", "NORAD_CAT_ID": 30652, "ELEMENT_SET_NO": 999, "REV_AT_EPOCH": 96825, "BSTAR": 1.6547e-05, "MEAN_MOTION_DOT": -1.5e-07, "MEAN_MOTION_DDOT": 0}, "tle": {"line1": "1 30652U 99025APJ 25356.06260494 -.00000015  00000+0  16547-4 0  9996", "line2": "2 30652  98.7839  28.9418 0007516 235.5314 153.2295 14.07808183968253"}}, "geometry": {"type": "Point", "coordinates": [29.323645220520834, -0.2702595335791401]}}, {"type": "Feature", "properties": {"norad_id": 30654, "name": "FENGYUN 1C DEB", "group": "fengyun-1c-debris", "lat": -29.86048764733069, "lon": -74.60713536275868, "alt_km": 845.2715245337158, "timestamp": "2025-12-22T09:53:37.679249+00:00", "meta": {"OBJECT_NAME": "FENGYUN 1C DEB", "OBJECT_ID": "1999-025APL", "EPOCH": "2025-12-20T05:30:24.981120", "MEAN_MOTION": 14.17127578, "ECCENTRICITY": 0.0035721, "INCLINATION": 99.2429, "RA_OF_ASC_NODE": 277.761, "ARG_OF_PERICENTER": 75.8834, "MEAN_ANOMALY": 284.6305, "EPHEMERIS_TYPE": 0, "CLASSIFICATION_TYPE": "U", "NORAD_CAT_ID": 30654, "ELEMENT_SET_NO": 999, "REV_AT_EPOCH": 96786, "BSTAR": 0.00081696, "MEAN_MOTION_DOT": 1.609e-05, "MEAN_MOTION_DDOT": 0}, "tle": {"line1": "1 30654U 99025APL 25354.22945580  .00001609  00000+0  81696-3 0  9995", "line2": "2 30654  99.2429 277.7610 0035721  75.8834 284.6305 14.17127578967865"}}, "geometry": {"type": "Point", "coordinates": [-74.60713536275868, -29.86048764733069]}}, {"type": "Feature", "properties": {"norad_id": 30656, "name": "FENGYUN 1C DEB", "group": "fengyun-1c-debris", "lat": 22.471317265394624, "lon": 167.3432728704146, "alt_km": 722.3511734000176, "timestamp": "2025-12-22T09:53:37.679259+00:00", "meta": {"OBJECT_NAME": "FENGYUN 1C DEB", "OBJECT_ID": "1999-025APN", "EPOCH": "2025-12-22T03:08:38.481216", "MEAN_MOTION": 14.454712, "ECCENTRICITY": 0.003012, "INCLINATION": 99.0179, "RA_OF_ASC_NODE": 170.811, "ARG_OF_PERICENTER": 57.9904, "MEAN_ANOMALY": 302.4206, "EPHEMERIS_TYPE": 0, "CLASSIFICATION_TYPE": "U", "NORAD_CAT_ID": 30656, "ELEMENT_SET_NO": 999, "REV_AT_EPOCH": 97221, "BSTAR": 0.002448, "MEAN_MOTION_DOT": 8.634e-05, "MEAN_MOTION_DDOT": 0}, "tle": {"line1": "1 30656U 99025APN 25356.13100094  .00008634  00000+0  24480-2 0  9994", "line2": "2 30656  99.0179 170.8110 0030120  57.9904 302.4206 14.45471200972211"}}, "geometry": {"type": "Point", "coordinates": [167.3432728704146, 22.471317265394624]}}, {"type": "Feature", "properties": {"norad_id": 30657, "name": "FENGYUN 1C DEB", "group": "fengyun-1c-debris", "lat": -79.67339758933875, "lon": -143.8921884571627, "alt_km": 762.4695736112835, "timestamp": "2025-12-22T09:53:37.679269+00:00", "meta": {"OBJECT_NAME": "FENGYUN 1C DEB", "OBJECT_ID": "1999-025APP", "EPOCH": "2025-12-21T18:20:50.666784", "MEAN_MOTION": 14.3869878, "ECCENTRICITY": 0.0016254, "INCLINATION": 98.8363, "RA_OF_ASC_NODE": 94.0604, "ARG_OF_PERICENTER": 315.531, "MEAN_ANOMALY": 196.1637, "EPHEMERIS_TYPE": 0, "CLASSIFICATION_TYPE": "U", "NORAD_CAT_ID": 30657, "ELEMENT_SET_NO": 999, "REV_AT_EPOCH": 97362, "BSTAR": 0.0016411, "MEAN_MOTION_DOT": 4.998e-05, "MEAN_MOTION_DDOT": 0}, "tle": {"line1": "1 30657U 99025APP 25355.76447531  .00004998  00000+0  16411-2 0  9997", "line2": "2 30657  98.8363  94.0604 0016254 315.5310 196.1637 14.38698780973623"}}, "geometry": {"type": "Point", "coordinates": [-143.8921884571627, -79.67339758933875]}}, {"type": "Feature", "properties": {"norad_id": 30658, "name": "FENGYUN 1C DEB", "group": "fengyun-1c-debris", "lat": 25.576349726092033, "lon": -148.00284007076706, "alt_km": 844.2761769480567, "timestamp": "2025-12-22T09:53:37.679279+00:00", "meta": {"OBJECT_NAME": "FENGYUN 1C DEB", "OBJECT_ID": "1999-025APQ", "EPOCH": "2025-12-18T13:23:50.214912", "MEAN_MOTION": 13.87228138, "ECCENTRICITY": 0.01842986, "INCLINATION": 98.4389, "RA_OF_ASC_NODE": 24.4397, "ARG_OF_PERICENTER": 211.7114, "MEAN_ANOMALY": 147.2839, "EPHEMERIS_TYPE": 0, "CLASSIFICATION_TYPE": "U", "NORAD_CAT_ID": 30658, "ELEMENT_SET_NO": 999, "REV_AT_EPOCH": 94765, "BSTAR": 0.001331943, "MEAN_MOTION_DOT": 1.751e-05, "MEAN_MOTION_DDOT": 0}, "tle": {"line1": "1 30658U 99025APQ 25352.55822008  .00001751  00000+0  13319-2 0  9996", "line2": "2 30658  98.4389  24.4397 0184298 211.7114 147.2839 13.87228138947651"}}, "geometry": {"type": "Point", "coordinates": [-148.00284007076706, 25.576349726092033]}}, {"type": "Feature", "properties": {"norad_id": 30660, "name": "FENGYUN 1C DEB", "group": "fengyun-1c-debris", "lat": 39.442772887365265, "lon": -80.11630046423704, "alt_km": 693.2685787556084, "timestamp": "2025-12-22T09:53:37.679289+00:00", "meta": {"OBJECT_NAME": "FENGYUN 1C DEB", "OBJECT_ID": "1999-025APS", "EPOCH": "2025-12-21T06:03:29.575296", "MEAN_MOTION": 14.87629204, "ECCENTRICITY": 0.0136498, "INCLINATION": 98.1394, "RA_OF_ASC_NODE": 91.9323, "ARG_OF_PERICENTER": 306.5747, "MEAN_ANOMALY": 106.2912, "EPHEMERIS_TYPE": 0, "CLASSIFICATION_TYPE": "U", "NORAD_CAT_ID": 30660, "ELEMENT_SET_NO": 999, "REV_AT_EPOCH": 911, "BSTAR": 0.00041242, "MEAN_MOTION_DOT": 4.385e-05, "MEAN_MOTION_DDOT": 0}, "tle": {"line1": "1 30660U 99025APS 25355.25242564  .00004385  00000+0  41242-3 0  9995", "line2": "2 30660  98.1394  91.9323 0136498 306.5747 106.2912 14.87629204  9116"}}, "geometry": {"type": "Point", "coordinates": [-80.11630046423704, 39.442772887365265]}}, {"type": "Feature", "properties": {"norad_id": 30661, "name": "FENGYUN 1C DEB", "group": "fengyun-1c-debris", "lat": 40.76013903955769, "lon": 164.5178611352406, "alt_km": 722.2830560043503, "timestamp": "2025-12-22T09:53:37.679299+00:00", "meta": {"OBJECT_NAME": "FENGYUN 1C DEB", "OBJECT_ID": "1999-025APT", "EPOCH": "2025-12-21T18:29:51.789984", "MEAN_MOTION": 14.21147338, "ECCENTRICITY": 0.0144437, "INCLINATION": 99.487, "RA_OF_ASC_NODE": 172.1163, "ARG_OF_PERICENTER": 20.2352, "MEAN_ANOMALY": 340.4468, "EPHEMERIS_TYPE": 0, "CLASSIFICATION_TYPE": "U", "NORAD_CAT_ID": 30661, "ELEMENT_SET_NO": 999, "REV_AT_EPOCH": 98030, "BSTAR": 9.8595e-05, "MEAN_MOTION_DOT": 1.88e-06, "MEAN_MOTION_DDOT": 0}, "tle": {"line1": "1 30661U 99025APT 25355.77073831  .00000188  00000+0  98595-4 0  9993", "line2": "2 30661  99.4870 172.1163 0144437  20.2352 340.4468 14.21147338980306"}}, "geometry": {"type": "Point", "coordinates": [164.5178611352406, 40.76013903955769]}}, {"type": "Feature", "properties": {"norad_id": 30662, "name": "FENGYUN 1C DEB", "group": "fengyun-1c-debris", "lat": 47.653193782810206, "lon": -116.9754073303128, "alt_km": 822.011839141941, "timestamp": "2025-12-22T09:53:37.679308+00:00", "meta": {"OBJECT_NAME": "FENGYUN 1C DEB", "OBJECT_ID": "1999-025APU", "EPOCH": "2025-12-22T02:49:55.549920", "MEAN_MOTION": 14.2241414, "ECCENTRICITY": 0.0033879, "INCLINATION": 99.0536, "RA_OF_ASC_NODE": 52.6473, "ARG_OF_PERICENTER": 244.4355, "MEAN_ANOMALY": 181.5403, "EPHEMERIS_TYPE": 0, "CLASSIFICATION_TYPE": "U", "NORAD_CAT_ID": 30662, "ELEMENT_SET_NO": 999, "REV_AT_EPOCH": 96772, "BSTAR": 0.0014357, "MEAN_MOTION_DOT": 3.17e-05, "MEAN_MOTION_DDOT": 0}, "tle": {"line1": "1 30662U 99025APU 25356.11800405  .00003170  00000+0  14357-2 0  9994", "line2": "2 30662  99.0536  52.6473 0033879 244.4355 181.5403 14.22414140967721"}}, "geometry": {"type": "Point", "coordinates": [-116.9754073303128, 47.653193782810206]}}]}